{
  "type": "FeatureCollection",
  "features": [
    {
      "type": "Feature",
      "properties": {
        "norad_id": 32711,
        "name": "GPS BIIRM-6 (PRN 07)",
        "group": "gnss",
        "lat": NaN,
        "lon": NaN,
        "alt_km": NaN,
        "timestamp": "2025-12-01T02:46:59.658477+00:00",
        "meta": {
          "OBJECT_NAME": "GPS BIIRM-6 (PRN 07)",
          "OBJECT_ID": "2008-012A",
          "EPOCH": "2025-11-30T16:59:40.998624",
          "MEAN_MOTION": 2.00564962,
          "ECCENTRICITY": 0.0201976,
          "INCLINATION": 54.4753,
          "RA_OF_ASC_NODE": 157.8533,
          "ARG_OF_PERICENTER": 244.8175,
          "MEAN_ANOMALY": 113.1226,
          "EPHEMERIS_TYPE": 0,
          "CLASSIFICATION_TYPE": "U",
          "NORAD_CAT_ID": 32711,
          "ELEMENT_SET_NO": 999,
          "REV_AT_EPOCH": 12977,
          "BSTAR": 0,
          "MEAN_MOTION_DOT": 1.28e-06,
          "MEAN_MOTION_DDOT": 0
        }
      },
      "geometry": {
        "type": "Point",
        "coordinates": [
          NaN,
          NaN
        ]
      }
    },
    {
      "type": "Feature",
      "properties": {
        "norad_id": 35752,
        "name": "GPS BIIRM-8 (PRN 05)",
        "group": "gnss",
        "lat": NaN,
        "lon": NaN,
        "alt_km": NaN,
        "timestamp": "2025-12-01T02:46:59.658500+00:00",
        "meta": {
          "OBJECT_NAME": "GPS BIIRM-8 (PRN 05)",
          "OBJECT_ID": "2009-043A",
          "EPOCH": "2025-11-30T04:48:34.511616",
          "MEAN_MOTION": 2.00566338,
          "ECCENTRICITY": 0.00521622,
          "INCLINATION": 56.0822,
          "RA_OF_ASC_NODE": 35.2779,
          "ARG_OF_PERICENTER": 82.1106,
          "MEAN_ANOMALY": 289.2836,
          "EPHEMERIS_TYPE": 0,
          "CLASSIFICATION_TYPE": "U",
          "NORAD_CAT_ID": 35752,
          "ELEMENT_SET_NO": 999,
          "REV_AT_EPOCH": 11937,
          "BSTAR": 0,
          "MEAN_MOTION_DOT": -6.5e-07,
          "MEAN_MOTION_DDOT": 0
        }
      },
      "geometry": {
        "type": "Point",
        "coordinates": [
          NaN,
          NaN
        ]
      }
    },
    {
      "type": "Feature",
      "properties": {
        "norad_id": 36111,
        "name": "COSMOS 2456 (730)",
        "group": "gnss",
        "lat": NaN,
        "lon": NaN,
        "alt_km": NaN,
        "timestamp": "2025-12-01T02:46:59.658518+00:00",
        "meta": {
          "OBJECT_NAME": "COSMOS 2456 (730)",
          "OBJECT_ID": "2009-070A",
          "EPOCH": "2025-11-30T08:50:19.027392",
          "MEAN_MOTION": 2.13103442,
          "ECCENTRICITY": 0.00027211,
          "INCLINATION": 64.8932,
          "RA_OF_ASC_NODE": 77.761,
          "ARG_OF_PERICENTER": 298.5848,
          "MEAN_ANOMALY": 69.8128,
          "EPHEMERIS_TYPE": 0,
          "CLASSIFICATION_TYPE": "U",
          "NORAD_CAT_ID": 36111,
          "ELEMENT_SET_NO": 999,
          "REV_AT_EPOCH": 12419,
          "BSTAR": 0,
          "MEAN_MOTION_DOT": -8e-08,
          "MEAN_MOTION_DDOT": 0
        }
      },
      "geometry": {
        "type": "Point",
        "coordinates": [
          NaN,
          NaN
        ]
      }
    },
    {
      "type": "Feature",
      "properties": {
        "norad_id": 36112,
        "name": "COSMOS 2457 (733)",
        "group": "gnss",
        "lat": NaN,
        "lon": NaN,
        "alt_km": NaN,
        "timestamp": "2025-12-01T02:46:59.658536+00:00",
        "meta": {
          "OBJECT_NAME": "COSMOS 2457 (733)",
          "OBJECT_ID": "2009-070B",
          "EPOCH": "2025-11-30T17:16:30.504000",
          "MEAN_MOTION": 2.13100809,
          "ECCENTRICITY": 0.000498,
          "INCLINATION": 64.8786,
          "RA_OF_ASC_NODE": 77.5967,
          "ARG_OF_PERICENTER": 155.4262,
          "MEAN_ANOMALY": 251.9047,
          "EPHEMERIS_TYPE": 0,
          "CLASSIFICATION_TYPE": "U",
          "NORAD_CAT_ID": 36112,
          "ELEMENT_SET_NO": 999,
          "REV_AT_EPOCH": 12420,
          "BSTAR": 0,
          "MEAN_MOTION_DOT": -1.2e-07,
          "MEAN_MOTION_DDOT": 0
        }
      },
      "geometry": {
        "type": "Point",
        "coordinates": [
          NaN,
          NaN
        ]
      }
    },
    {
      "type": "Feature",
      "properties": {
        "norad_id": 36402,
        "name": "COSMOS 2460 (732)",
        "group": "gnss",
        "lat": NaN,
        "lon": NaN,
        "alt_km": NaN,
        "timestamp": "2025-12-01T02:46:59.658555+00:00",
        "meta": {
          "OBJECT_NAME": "COSMOS 2460 (732)",
          "OBJECT_ID": "2010-007C",
          "EPOCH": "2025-11-30T07:40:32.843712",
          "MEAN_MOTION": 2.13106071,
          "ECCENTRICITY": 0.00028145,
          "INCLINATION": 65.5365,
          "RA_OF_ASC_NODE": 321.1932,
          "ARG_OF_PERICENTER": 269.4313,
          "MEAN_ANOMALY": 190.342,
          "EPHEMERIS_TYPE": 0,
          "CLASSIFICATION_TYPE": "U",
          "NORAD_CAT_ID": 36402,
          "ELEMENT_SET_NO": 999,
          "REV_AT_EPOCH": 12249,
          "BSTAR": 0,
          "MEAN_MOTION_DOT": -2e-07,
          "MEAN_MOTION_DDOT": 0
        }
      },
      "geometry": {
        "type": "Point",
        "coordinates": [
          NaN,
          NaN
        ]
      }
    },
    {
      "type": "Feature",
      "properties": {
        "norad_id": 36585,
        "name": "GPS BIIF-1  (PRN 25)",
        "group": "gnss",
        "lat": NaN,
        "lon": NaN,
        "alt_km": NaN,
        "timestamp": "2025-12-01T02:46:59.658574+00:00",
        "meta": {
          "OBJECT_NAME": "GPS BIIF-1  (PRN 25)",
          "OBJECT_ID": "2010-022A",
          "EPOCH": "2025-11-30T06:31:30.992736",
          "MEAN_MOTION": 2.00552472,
          "ECCENTRICITY": 0.01255737,
          "INCLINATION": 54.3027,
          "RA_OF_ASC_NODE": 216.5768,
          "ARG_OF_PERICENTER": 64.9352,
          "MEAN_ANOMALY": 116.9551,
          "EPHEMERIS_TYPE": 0,
          "CLASSIFICATION_TYPE": "U",
          "NORAD_CAT_ID": 36585,
          "ELEMENT_SET_NO": 999,
          "REV_AT_EPOCH": 11360,
          "BSTAR": 0,
          "MEAN_MOTION_DOT": 5.1e-07,
          "MEAN_MOTION_DDOT": 0
        }
      },
      "geometry": {
        "type": "Point",
        "coordinates": [
          NaN,
          NaN
        ]
      }
    },
    {
      "type": "Feature",
      "properties": {
        "norad_id": 36828,
        "name": "BEIDOU-2 IGSO-1 (C06)",
        "group": "gnss",
        "lat": NaN,
        "lon": NaN,
        "alt_km": NaN,
        "timestamp": "2025-12-01T02:46:59.658592+00:00",
        "meta": {
          "OBJECT_NAME": "BEIDOU-2 IGSO-1 (C06)",
          "OBJECT_ID": "2010-036A",
          "EPOCH": "2025-11-30T10:56:14.803296",
          "MEAN_MOTION": 1.00279528,
          "ECCENTRICITY": 0.00512749,
          "INCLINATION": 54.2835,
          "RA_OF_ASC_NODE": 164.7602,
          "ARG_OF_PERICENTER": 215.7273,
          "MEAN_ANOMALY": 320.8565,
          "EPHEMERIS_TYPE": 0,
          "CLASSIFICATION_TYPE": "U",
          "NORAD_CAT_ID": 36828,
          "ELEMENT_SET_NO": 999,
          "REV_AT_EPOCH": 5610,
          "BSTAR": 0,
          "MEAN_MOTION_DOT": -2.1e-07,
          "MEAN_MOTION_DDOT": 0
        }
      },
      "geometry": {
        "type": "Point",
        "coordinates": [
          NaN,
          NaN
        ]
      }
    },
    {
      "type": "Feature",
      "properties": {
        "norad_id": 37210,
        "name": "BEIDOU-2 G4 (C04)",
        "group": "gnss",
        "lat": NaN,
        "lon": NaN,
        "alt_km": NaN,
        "timestamp": "2025-12-01T02:46:59.658611+00:00",
        "meta": {
          "OBJECT_NAME": "BEIDOU-2 G4 (C04)",
          "OBJECT_ID": "2010-057A",
          "EPOCH": "2025-11-30T19:44:29.116608",
          "MEAN_MOTION": 1.00271583,
          "ECCENTRICITY": 0.0010748,
          "INCLINATION": 3.1524,
          "RA_OF_ASC_NODE": 69.9666,
          "ARG_OF_PERICENTER": 187.5096,
          "MEAN_ANOMALY": 268.6675,
          "EPHEMERIS_TYPE": 0,
          "CLASSIFICATION_TYPE": "U",
          "NORAD_CAT_ID": 37210,
          "ELEMENT_SET_NO": 999,
          "REV_AT_EPOCH": 5530,
          "BSTAR": 0,
          "MEAN_MOTION_DOT": -9e-07,
          "MEAN_MOTION_DDOT": 0
        }
      },
      "geometry": {
        "type": "Point",
        "coordinates": [
          NaN,
          NaN
        ]
      }
    }
  ]
}