NAVSTAR 62 (USA 201)    
1 32711U 08012A   25334.70811341  .00000128  00000+0  00000+0 0  9996
2 32711  54.4753 157.8533 0201976 244.8175 113.1226  2.00564962129778
NAVSTAR 64 (USA 206)    
1 35752U 09043A   25334.20039944 -.00000065  00000+0  00000+0 0  9996
2 35752  56.0822  35.2779 0052162  82.1106 289.2836  2.00566338119376
COSMOS 2456 [GLONASS-M] 
1 36111U 09070A   25334.36827578 -.00000008  00000+0  00000+0 0  9998
2 36111  64.8932  77.7610 0002721 298.5848  69.8128  2.13103442124191
COSMOS 2457 [GLONASS-M] 
1 36112U 09070B   25334.71979750 -.00000012  00000+0  00000+0 0  9993
2 36112  64.8786  77.5967 0004980 155.4262 251.9047  2.13100809124202
COSMOS 2460 [GLONASS-M] 
1 36402U 10007C   25334.31982458 -.00000020  00000+0  00000+0 0  9991
2 36402  65.5365 321.1932 0002814 269.4313 190.3420  2.13106071122499
NAVSTAR 65 (USA 213)    
1 36585U 10022A   25334.27188649  .00000051  00000+0  00000+0 0  9998
2 36585  54.3027 216.5768 0125573  64.9352 116.9551  2.00552472113603
BEIDOU-2 IGSO-1         
1 36828U 10036A   25334.45572689 -.00000021  00000+0  00000+0 0  9992
2 36828  54.2835 164.7602 0051274 215.7273 320.8565  1.00279528 56103
BEIDOU-2 G4             
1 37210U 10057A   25334.82255922 -.00000090  00000+0  00000+0 0  9996
2 37210   3.1524  69.9666 0010748 187.5096 268.6675  1.00271583 55308
